{
  "norad_id": 57757,
  "name": "BB4",
  "history": [
    {
      "epoch": "2026-03-24T16:42:15.352128",
      "apogee_km": 866.5032001089658,
      "perigee_km": 856.3281536126915,
      "latitude_deg": -80.93644238904307,
      "longitude_deg": -1.4829420801252127,
      "semi_major_axis_km": 7239.552676860829,
      "eccentricity": 0.00070274,
      "inclination_deg": 80.9956,
      "raan_deg": 86.4464,
      "arg_perigee_deg": 214.6774,
      "mean_anomaly_deg": 145.3938,
      "mean_motion_rev_day": 14.09402908
    }
  ]
}